OBJECT_NAME,OBJECT_ID,EPOCH,MEAN_MOTION,ECCENTRICITY,INCLINATION,RA_OF_ASC_NODE,ARG_OF_PERICENTER,MEAN_ANOMALY,EPHEMERIS_TYPE,CLASSIFICATION_TYPE,NORAD_CAT_ID,ELEMENT_SET_NO,REV_AT_EPOCH,BSTAR,MEAN_MOTION_DOT,MEAN_MOTION_DDOT
IONOSFERA-M 4,2025-155B,2026-07-11T11:51:48.731328,14.21492829,.0001769,98.6036,153.7063,103.3825,256.7550,0,U,64877,999,4985,.2297E-4,.7E-7,0
MICROCARB,2025-156A,2026-07-11T06:29:35.761920,14.72882508,.0017309,98.0075,269.0278,183.1509,176.9592,0,U,64899,999,5151,.51947E-4,.283E-5,0
CO3D 3,2025-156B,2026-07-11T11:25:46.354080,15.20218567,.0001827,97.4337,270.8199,100.2928,259.8513,0,U,64900,999,5322,.123E-3,.2597E-4,0
CO3D 4,2025-156C,2026-07-11T08:16:25.828032,15.20211211,.0001413,97.4337,270.6907,162.7074,197.4210,0,U,64901,999,5320,.38841E-4,.774E-5,0
CO3D 2,2025-156D,2026-07-11T12:12:46.647072,15.20202964,.0001318,97.4336,270.7508,88.3880,271.7506,0,U,64902,999,5322,.12173E-3,.2569E-4,0
CO3D 1,2025-156E,2026-07-11T12:12:59.670144,15.20206475,.0001319,97.4337,270.7510,100.8428,259.2955,0,U,64903,999,5322,.12407E-3,.262E-4,0
PRSC-S1,2025-164A,2026-07-11T07:52:56.155872,15.06616018,.0006101,41.1291,151.8287,172.3339,187.7569,0,U,65055,999,5207,.15858E-3,.2214E-4,0
SENTINEL-6B,2025-264A,2026-07-10T02:50:15.264672,12.80930089,.00078778,66.0414,87.5519,268.8168,91.1945,0,U,66514,999,3010,-.35218925E-4,-.69E-6,0
CAS500-3,2025-274F,2026-07-10T06:36:10.338624,14.88376906,.00065732,97.7440,118.8011,51.3120,308.8684,0,U,66655,999,3358,.9098435E-4,.789E-5,0
CSG-3,2026-001A,2026-07-11T12:04:05.088288,14.82150491,.0001492,97.8892,15.7530,93.1085,267.0299,0,U,67304,999,2806,.28102E-4,.171E-5,0
PRSC-E03,2026-092A,2026-07-11T12:14:46.940928,15.06798484,.0004601,38.0022,306.2402,228.0846,131.9524,0,U,68835,999,1162,.10838E-3,.1535E-4,0
CAS500-2,2026-100AK,2026-07-11T04:03:33.295104,15.20873067,.0008028,97.3877,89.5712,308.8514,51.2005,0,U,69013,999,1045,.16396E-3,.3556E-4,0
