IONOSFERA-M 4           
1 64877U 25155B   26192.49431402  .00000007  00000+0  22970-4 0  9997
2 64877  98.6036 153.7063 0001769 103.3825 256.7550 14.21492829 49854
MICROCARB               
1 64899U 25156A   26192.27055280  .00000283  00000+0  51947-4 0  9996
2 64899  98.0075 269.0278 0017309 183.1509 176.9592 14.72882508 51514
CO3D 3                  
1 64900U 25156B   26192.47623095  .00002597  00000+0  12300-3 0  9995
2 64900  97.4337 270.8199 0001827 100.2928 259.8513 15.20218567 53222
CO3D 4                  
1 64901U 25156C   26192.34474338  .00000774  00000+0  38841-4 0  9990
2 64901  97.4337 270.6907 0001413 162.7074 197.4210 15.20211211 53202
CO3D 2                  
1 64902U 25156D   26192.50887323  .00002569  00000+0  12173-3 0  9994
2 64902  97.4336 270.7508 0001318  88.3880 271.7506 15.20202964 53223
CO3D 1                  
1 64903U 25156E   26192.50902396  .00002620  00000+0  12407-3 0  9991
2 64903  97.4337 270.7510 0001319 100.8428 259.2955 15.20206475 53227
PRSC-S1                 
1 65055U 25164A   26192.32842773  .00002214  00000+0  15858-3 0  9993
2 65055  41.1291 151.8287 0006101 172.3339 187.7569 15.06616018 52070
SENTINEL-6B             
1 66514U 25264A   26191.11823223 -.00000069  00000+0 -35219-4 0  9992
2 66514  66.0414  87.5519 0007877 268.8168  91.1945 12.80930089 30101
CAS500-3                
1 66655U 25274F   26191.27511966  .00000789  00000+0  90984-4 0  9991
2 66655  97.7440 118.8011 0006573  51.3120 308.8684 14.88376906 33582
CSG-3                   
1 67304U 26001A   26192.50283667  .00000171  00000+0  28102-4 0  9991
2 67304  97.8892  15.7530 0001492  93.1085 267.0299 14.82150491 28064
PRSC-E03                
1 68835U 26092A   26192.51026552  .00001535  00000+0  10838-3 0  9991
2 68835  38.0022 306.2402 0004601 228.0846 131.9524 15.06798484 11622
CAS500-2                
1 69013U 26100AK  26192.16913536  .00003556  00000+0  16396-3 0  9998
2 69013  97.3877  89.5712 0008028 308.8514  51.2005 15.20873067 10453
